0 SL-8 R/B
1 10962U 78063B   13282.28758520  .00000168  00000-0  60764-4 0  5713
2 10962 074.0818 184.4487 0024415 073.0859 060.9326 14.40479918851896
0 SL-8 R/B
1 10962U 78063B   13283.33034069  .00000170  00000-0  61549-4 0  5721
2 10962 074.0818 182.5260 0024451 070.8050 068.4671 14.40480207852049
0 SL-8 R/B
1 10962U 78063B   13286.18217433  .00000192  00000-0  68470-4 0  5741
2 10962 074.0813 177.2675 0024518 064.5953 097.5225 14.40480832852458
0 SL-8 R/B
1 10962U 78063B   13287.28758990  .00000221  00000-0  77286-4 0  5750
2 10962 074.0811 175.2291 0024585 062.2403 069.9425 14.40481294852613
0 SL-8 R/B
1 10962U 78063B   13288.73105376  .00000262  00000-0  90107-4 0  5768
2 10962 074.0808 172.5675 0024574 059.0621 355.5074 14.40482594852820
0 SL-8 R/B
1 10962U 78063B   13289.84551764  .00000242  00000-0  83971-4 0  5777
2 10962 074.0806 170.5125 0024612 056.6494 014.8962 14.40483638852988
0 SL-8 R/B
1 10962U 78063B   13291.17977443  .00000223  00000-0  77890-4 0  5785
2 10962 074.0803 168.0522 0024670 053.7701 094.0811 14.40484525853172
0 SL-8 R/B
1 10962U 78063B   13292.21964616  .00000227  00000-0  79160-4 0  5796
2 10962 074.0803 166.1346 0024708 051.5183 086.6562 14.40484987853326
0 SL-8 R/B
1 10962U 78063B   13293.26208753  .00000230  00000-0  80119-4 0  5807
2 10962 074.0802 164.2122 0024748 049.2876 092.5330 14.40485535853478
0 SL-8 R/B
1 10962U 78063B   13294.77569321  .00000245  00000-0  85013-4 0  5810
2 10962 074.0802 161.4210 0024808 046.0071 021.8113 14.40486551853691
0 SL-8 R/B
1 10962U 78063B   13295.81850208  .00000270  00000-0  92861-4 0  5821
2 10962 074.0802 159.4981 0024829 043.6990 029.6770 14.40486990853848
